[{"OBJECT_NAME":"STARLINK-30155","OBJECT_ID":"2023-107U","EPOCH":"2026-03-09T04:18:15.875424","MEAN_MOTION":15.26734779,"ECCENTRICITY":0.00025937,"INCLINATION":43.0046,"RA_OF_ASC_NODE":338.5844,"ARG_OF_PERICENTER":269.8096,"MEAN_ANOMALY":90.2458,"EPHEMERIS_TYPE":0,"CLASSIFICATION_TYPE":"U","NORAD_CAT_ID":57475,"ELEMENT_SET_NO":999,"REV_AT_EPOCH":14507,"BSTAR":2.4290445e-5,"MEAN_MOTION_DOT":3.91e-6,"MEAN_MOTION_DDOT":0},{"OBJECT_NAME":"OBJECT M","OBJECT_ID":"2024-205M","EPOCH":"2026-03-09T22:23:47.520096","MEAN_MOTION":15.27663844,"ECCENTRICITY":0.00036602,"INCLINATION":97.3915,"RA_OF_ASC_NODE":144.193,"ARG_OF_PERICENTER":310.2554,"MEAN_ANOMALY":49.8364,"EPHEMERIS_TYPE":0,"CLASSIFICATION_TYPE":"U","NORAD_CAT_ID":61905,"ELEMENT_SET_NO":999,"REV_AT_EPOCH":7334,"BSTAR":0.00036391974,"MEAN_MOTION_DOT":9.771e-5,"MEAN_MOTION_DDOT":0}]
